[{"OBJECT_NAME":"GEESAT-4 08","OBJECT_ID":"2025-170H","EPOCH":"2026-03-09T21:04:12.427104","MEAN_MOTION":15.14705127,"ECCENTRICITY":0.00114102,"INCLINATION":49.9764,"RA_OF_ASC_NODE":229.0077,"ARG_OF_PERICENTER":340.9051,"MEAN_ANOMALY":19.1471,"EPHEMERIS_TYPE":0,"CLASSIFICATION_TYPE":"U","NORAD_CAT_ID":65126,"ELEMENT_SET_NO":999,"REV_AT_EPOCH":3229,"BSTAR":0.00074081208,"MEAN_MOTION_DOT":0.00013648,"MEAN_MOTION_DDOT":0},{"OBJECT_NAME":"SL-8 DEB","OBJECT_ID":"1974-071C","EPOCH":"2026-03-09T18:55:46.744608","MEAN_MOTION":15.16405778,"ECCENTRICITY":0.00028572,"INCLINATION":74.0336,"RA_OF_ASC_NODE":64.8288,"ARG_OF_PERICENTER":212.1551,"MEAN_ANOMALY":147.9471,"EPHEMERIS_TYPE":0,"CLASSIFICATION_TYPE":"U","NORAD_CAT_ID":8756,"ELEMENT_SET_NO":999,"REV_AT_EPOCH":87568,"BSTAR":0.0013012162,"MEAN_MOTION_DOT":0.00025337,"MEAN_MOTION_DDOT":0}]
